{
  "type": "FeatureCollection",
  "features": [
    {
      "type": "Feature",
      "properties": {
        "norad_id": 52912,
        "name": "GAOFEN-12 03",
        "group": "resource",
        "lat": -80.2207877168426,
        "lon": 14.95916870516459,
        "alt_km": 638.7496159068651,
        "timestamp": "2025-12-27T02:10:15.845922+00:00",
        "meta_object_name": "GAOFEN-12 03",
        "meta_object_id": "2022-069A",
        "meta_epoch": "2025-12-26T20:06:42.408576",
        "meta_mean_motion": 14.79641633,
        "meta_eccentricity": 0.0001729,
        "meta_inclination": 97.8474,
        "meta_ra_of_asc_node": 247.8613,
        "meta_arg_of_pericenter": 46.0954,
        "meta_mean_anomaly": 314.04,
        "meta_ephemeris_type": 0,
        "meta_classification_type": "U",
        "meta_norad_cat_id": 52912,
        "meta_element_set_no": 999,
        "meta_rev_at_epoch": 18912,
        "meta_bstar": 0.0001569,
        "meta_mean_motion_dot": 1.126e-05,
        "meta_mean_motion_ddot": 0,
        "tle_line1": "1 52912U 22069A   25360.83799084  .00001126  00000+0  15690-3 0  9995",
        "tle_line2": "2 52912  97.8474 247.8613 0001729  46.0954 314.0400 14.79641633189125"
      },
      "geometry": {
        "type": "Point",
        "coordinates": [
          14.95916870516459,
          -80.2207877168426
        ]
      }
    },
    {
      "type": "Feature",
      "properties": {
        "norad_id": 54754,
        "name": "SWOT",
        "group": "resource",
        "lat": 69.41343990526003,
        "lon": 51.80146535311995,
        "alt_km": 886.0235526408114,
        "timestamp": "2025-12-27T02:10:15.845932+00:00",
        "meta_object_name": "SWOT",
        "meta_object_id": "2022-173A",
        "meta_epoch": "2025-12-26T20:31:09.979968",
        "meta_mean_motion": 14.0016904,
        "meta_eccentricity": 4.3e-05,
        "meta_inclination": 77.6107,
        "meta_ra_of_asc_node": 267.9364,
        "meta_arg_of_pericenter": 80.6664,
        "meta_mean_anomaly": 279.4536,
        "meta_ephemeris_type": 0,
        "meta_classification_type": "U",
        "meta_norad_cat_id": 54754,
        "meta_element_set_no": 999,
        "meta_rev_at_epoch": 15503,
        "meta_bstar": 8.8939e-05,
        "meta_mean_motion_dot": 1.29e-06,
        "meta_mean_motion_ddot": 0,
        "tle_line1": "1 54754U 22173A   25360.85497662  .00000129  00000+0  88939-4 0  9995",
        "tle_line2": "2 54754  77.6107 267.9364 0000430  80.6664 279.4536 14.00169040155034"
      },
      "geometry": {
        "type": "Point",
        "coordinates": [
          51.80146535311995,
          69.41343990526003
        ]
      }
    },
    {
      "type": "Feature",
      "properties": {
        "norad_id": 57654,
        "name": "GAOFEN-12 04",
        "group": "resource",
        "lat": 76.22817801344299,
        "lon": -117.9422493527568,
        "alt_km": 622.1017845514443,
        "timestamp": "2025-12-27T02:10:15.845942+00:00",
        "meta_object_name": "GAOFEN-12 04",
        "meta_object_id": "2023-123A",
        "meta_epoch": "2025-12-26T20:56:53.284416",
        "meta_mean_motion": 14.7974081,
        "meta_eccentricity": 0.0001189,
        "meta_inclination": 97.9129,
        "meta_ra_of_asc_node": 276.4164,
        "meta_arg_of_pericenter": 80.7342,
        "meta_mean_anomaly": 279.4004,
        "meta_ephemeris_type": 0,
        "meta_classification_type": "U",
        "meta_norad_cat_id": 57654,
        "meta_element_set_no": 999,
        "meta_rev_at_epoch": 12714,
        "meta_bstar": 0.00020722,
        "meta_mean_motion_dot": 1.506e-05,
        "meta_mean_motion_ddot": 0,
        "tle_line1": "1 57654U 23123A   25360.87283894  .00001506  00000+0  20722-3 0  9990",
        "tle_line2": "2 57654  97.9129 276.4164 0001189  80.7342 279.4004 14.79740810127141"
      },
      "geometry": {
        "type": "Point",
        "coordinates": [
          -117.9422493527568,
          76.22817801344299
        ]
      }
    },
    {
      "type": "Feature",
      "properties": {
        "norad_id": 59065,
        "name": "PARS 1",
        "group": "resource",
        "lat": 42.422205918091514,
        "lon": -34.55068755725716,
        "alt_km": 431.38966865273505,
        "timestamp": "2025-12-27T02:10:15.845952+00:00",
        "meta_object_name": "PARS 1",
        "meta_object_id": "2024-039Q",
        "meta_epoch": "2025-12-26T21:18:42.090624",
        "meta_mean_motion": 15.41301565,
        "meta_eccentricity": 0.0011329,
        "meta_inclination": 97.4655,
        "meta_ra_of_asc_node": 332.1249,
        "meta_arg_of_pericenter": 28.6804,
        "meta_mean_anomaly": 331.5063,
        "meta_ephemeris_type": 0,
        "meta_classification_type": "U",
        "meta_norad_cat_id": 59065,
        "meta_element_set_no": 999,
        "meta_rev_at_epoch": 10206,
        "meta_bstar": 0.00032314,
        "meta_mean_motion_dot": 0.00013407,
        "meta_mean_motion_ddot": 0,
        "tle_line1": "1 59065U 24039Q   25360.88798716  .00013407  00000+0  32314-3 0  9993",
        "tle_line2": "2 59065  97.4655 332.1249 0011329  28.6804 331.5063 15.41301565102062"
      },
      "geometry": {
        "type": "Point",
        "coordinates": [
          -34.55068755725716,
          42.422205918091514
        ]
      }
    },
    {
      "type": "Feature",
      "properties": {
        "norad_id": 59371,
        "name": "RESURS-P 4",
        "group": "resource",
        "lat": 78.43065082677886,
        "lon": -91.36369042316285,
        "alt_km": 461.37662165491656,
        "timestamp": "2025-12-27T02:10:15.845963+00:00",
        "meta_object_name": "RESURS-P 4",
        "meta_object_id": "2024-061A",
        "meta_epoch": "2025-12-26T21:07:00.855264",
        "meta_mean_motion": 15.32210651,
        "meta_eccentricity": 7.93e-05,
        "meta_inclination": 97.2562,
        "meta_ra_of_asc_node": 306.9224,
        "meta_arg_of_pericenter": 91.5087,
        "meta_mean_anomaly": 268.6246,
        "meta_ephemeris_type": 0,
        "meta_classification_type": "U",
        "meta_norad_cat_id": 59371,
        "meta_element_set_no": 999,
        "meta_rev_at_epoch": 9737,
        "meta_bstar": 0.00014609,
        "meta_mean_motion_dot": 4.467e-05,
        "meta_mean_motion_ddot": 0,
        "tle_line1": "1 59371U 24061A   25360.87987101  .00004467  00000+0  14609-3 0  9998",
        "tle_line2": "2 59371  97.2562 306.9224 0000793  91.5087 268.6246 15.32210651 97379"
      },
      "geometry": {
        "type": "Point",
        "coordinates": [
          -91.36369042316285,
          78.43065082677886
        ]
      }
    },
    {
      "type": "Feature",
      "properties": {
        "norad_id": 59625,
        "name": "LEGION 1",
        "group": "resource",
        "lat": -41.48562150660289,
        "lon": -111.10123179742384,
        "alt_km": 520.4905232466454,
        "timestamp": "2025-12-27T02:10:15.845973+00:00",
        "meta_object_name": "LEGION 1",
        "meta_object_id": "2024-081A",
        "meta_epoch": "2025-12-26T18:51:42.230880",
        "meta_mean_motion": 15.16617424,
        "meta_eccentricity": 0.0003661,
        "meta_inclination": 97.5192,
        "meta_ra_of_asc_node": 75.3043,
        "meta_arg_of_pericenter": 251.6567,
        "meta_mean_anomaly": 108.4267,
        "meta_ephemeris_type": 0,
        "meta_classification_type": "U",
        "meta_norad_cat_id": 59625,
        "meta_element_set_no": 999,
        "meta_rev_at_epoch": 9140,
        "meta_bstar": 0.00026116,
        "meta_mean_motion_dot": 5.038e-05,
        "meta_mean_motion_ddot": 0,
        "tle_line1": "1 59625U 24081A   25360.78590545  .00005038  00000+0  26116-3 0  9995",
        "tle_line2": "2 59625  97.5192  75.3043 0003661 251.6567 108.4267 15.16617424 91401"
      },
      "geometry": {
        "type": "Point",
        "coordinates": [
          -111.10123179742384,
          -41.48562150660289
        ]
      }
    },
    {
      "type": "Feature",
      "properties": {
        "norad_id": 59626,
        "name": "LEGION 2",
        "group": "resource",
        "lat": 41.76002230945088,
        "lon": 68.92118413308826,
        "alt_km": 516.6699299219727,
        "timestamp": "2025-12-27T02:10:15.845983+00:00",
        "meta_object_name": "LEGION 2",
        "meta_object_id": "2024-081B",
        "meta_epoch": "2025-12-26T19:39:05.691168",
        "meta_mean_motion": 15.16632569,
        "meta_eccentricity": 0.0005838,
        "meta_inclination": 97.5196,
        "meta_ra_of_asc_node": 75.425,
        "meta_arg_of_pericenter": 233.0311,
        "meta_mean_anomaly": 127.0388,
        "meta_ephemeris_type": 0,
        "meta_classification_type": "U",
        "meta_norad_cat_id": 59626,
        "meta_element_set_no": 999,
        "meta_rev_at_epoch": 9141,
        "meta_bstar": 0.00029574,
        "meta_mean_motion_dot": 5.718e-05,
        "meta_mean_motion_ddot": 0,
        "tle_line1": "1 59626U 24081B   25360.81881587  .00005718  00000+0  29574-3 0  9995",
        "tle_line2": "2 59626  97.5196  75.4250 0005838 233.0311 127.0388 15.16632569 91415"
      },
      "geometry": {
        "type": "Point",
        "coordinates": [
          68.92118413308826,
          41.76002230945088
        ]
      }
    }
  ]
}